ES'HAIL 2               
1 43700U 18090A   26061.72035672  .00000127  00000+0  00000+0 0  9997
2 43700   0.0255 242.7362 0002653 132.4476  70.4158  1.00267779 26605
GEO-KOMPSAT-2A          
1 43823U 18100A   26060.97179095 -.00000362  00000+0  00000+0 0  9991
2 43823   0.0180  67.6811 0001336 333.4250 236.7399  1.00270368 26557
GSAT-11                 
1 43824U 18100B   26061.84072336 -.00000093  00000+0  00000+0 0  9990
2 43824   0.0896 271.1988 0004838 143.4568 122.5963  1.00271601 26415
GSAT-7A                 
1 43864U 18105A   26061.86169131  .00000011  00000+0  00000+0 0  9990
2 43864   0.1027 277.3552 0002073  49.9600 206.2554  1.00270588 26382
COSMOS 2533             
1 43867U 18107A   26061.18933596 -.00000055  00000+0  00000+0 0  9993
2 43867   0.0195 114.5866 0000630 341.1778 202.3414  1.00268392 26360
TJS-3                   
1 43874U 18110A   26061.10603822 -.00000229  00000+0  00000+0 0  9996
2 43874   2.2688  81.8170 0016635 344.8419 217.6350  1.00349757 26348
ZHONGXING-2D            
1 43920U 19001A   26061.89091478 -.00000353  00000+0  00000+0 0  9990
2 43920   0.0557 290.9257 0001277 355.9743 324.4995  1.00272478 53010
HELLAS-SAT 4 & SGS-1    
1 44034U 19007A   26061.73852131  .00000136  00000+0  00000+0 0  9995
2 44034   0.0652 125.8686 0003037  29.0121 310.5038  1.00268904 26293
GSAT-31                 
1 44035U 19007B   26061.82267102  .00000109  00000+0  00000+0 0  9994
2 44035   0.0423 274.7780 0004772  29.0818 200.7582  1.00269626 25902
NUSANTARA SATU          
1 44048U 19009A   26061.50432800 -.00000252  00000+0  00000+0 0  9994
2 44048   0.0271 131.4512 0001319 318.0739  38.2962  1.00270564 25703
ZHONGXING-6C            
1 44067U 19012A   26061.75663472 -.00000352  00000+0  00000+0 0  9998
2 44067   0.0390  54.0893 0008466 334.9348 174.3033  1.00271094 25677
WGS 10 (USA 291)        
1 44071U 19014A   26061.89676444  .00000031  00000+0  00000+0 0  9996
2 44071   0.0192 135.1686 0000466 215.0872 193.5289  1.00271320 25551
TIANLIAN 2-01           
1 44076U 19017A   26061.88358515 -.00000122  00000+0  00000+0 0  9991
2 44076   0.2653  82.2112 0003412 219.2479 254.2850  1.00271494 25583
ARABSAT-6A              
1 44186U 19021A   26061.66551306  .00000000  00000+0  00000+0 0  9991
2 44186   0.0170  12.4023 0003056 322.7050  95.4339  1.00279007 25082
BEIDOU-3 IGSO-1         
1 44204U 19023A   26061.84398256 -.00000203  00000+0  00000+0 0  9993
2 44204  58.5514  38.7415 0026010 236.5555 308.3606  1.00271200  6142
BEIDOU-2 G8             
1 44231U 19027A   26061.75940808 -.00000264  00000+0  00000+0 0  9990
2 44231   1.8638  74.7262 0009243 269.0003 234.6865  1.00268231 25013
YAMAL 601               
1 44307U 19031A   26061.89327931  .00000104  00000+0  00000+0 0  9992
2 44307   0.0121 136.7584 0002641 203.8247 190.6386  1.00271724 24853
